SatCatId,ObjectName,LaunchYear,OrbitalPeriod,LaunchMass,StatusCode,Inclination,Status,UcsData,OrbitClassEstimated,LaunchSiteCountry,Owner,UseType,Purpose,LaunchVehicleClass,TLE1,TLE2,MeanMotion,Eccentricity,OrbitClass
43772,OBJECT Q,2018,94.72,1.5,-,97.5,Inactive,1,LEO,USA,To Be Determined,Civil,Technology Development,Falcon,1 43772U 18099Q   24362.44682513  .00031245  00000+0  14327-2 0  9993,2 43772  97.4999  61.3322 0003685 326.0902  34.0097 15.20381565331975,15.20381565,0.0003685,LEO
51824,OBJECT A,2022,93.71,39.0,-,97.41,Inactive,1,LEO,PRC,China,Commercial,Technology Development,Long March,1 51824U 22019A   24362.82802459  .00040041  00000+0  11107-2 0  9999,2 51824  97.4111  74.8210 0011529 271.5278  88.4645 15.36750628156894,15.36750628,0.0011529,LEO
51825,OBJECT B,2022,94.04,55.0,-,97.41,Inactive,1,LEO,PRC,China,Government,Earth Observation,Long March,1 51825U 22019B   24362.77522102  .00026779  00000+0  88574-3 0  9993,2 51825  97.4089  72.6882 0010735 275.7691  84.2326 15.31264299156757,15.31264299,0.0010735,LEO
51827,OBJECT D,2022,94.05,62.0,-,97.42,Inactive,1,LEO,PRC,China,Government,Earth Observation,Long March,1 51827U 22019D   24362.79281232  .00027273  00000+0  90447-3 0  9995,2 51827  97.4156  73.4007 0009860 274.0751  85.9363 15.31184403156777,15.31184403,0.000986,LEO
51828,OBJECT E,2022,93.75,62.0,UNK,97.42,Inactive,1,LEO,PRC,China,Government,Earth Observation,Long March,1 51828U 22019E   24362.77677940  .00021103  00000+0  60264-3 0  9999,2 51828  97.4164  77.9565 0009026 255.2393 104.7851 15.36001867157075,15.36001867,0.0009026,LEO
51832,OBJECT J,2022,94.94,32.0,UNK,97.41,Inactive,1,LEO,PRC,China,Commercial,Earth Observation,Long March,1 51832U 22019J   24362.85935186  .00005238  00000+0  26991-3 0  9992,2 51832  97.4131  67.4700 0007850 308.2355  51.8171 15.16780329156395,15.16780329,0.000785,LEO
51833,OBJECT K,2022,92.69,43.0,-,97.41,Inactive,1,LEO,PRC,China,Commercial,Earth Observation,Long March,1 51833U 22019K   24362.78529080  .00068927  00000+0  10674-2 0  9991,2 51833  97.4124  83.2234 0007379 237.4978 122.5563 15.53784411157441,15.53784411,0.0007379,LEO
51843,OBJECT V,2022,94.12,325.0,-,97.41,Inactive,1,LEO,PRC,China,Commercial,Earth Observation,Long March,1 51843U 22019V   24362.80115975  .00018822  00000+0  64787-3 0  9993,2 51843  97.4134  73.4063 0008879 290.7661  69.2627 15.30062593156768,15.30062593,0.0008879,LEO
51845,OBJECT X,2022,92.24,20.0,-,97.41,Inactive,1,LEO,PRC,China,Commercial,Earth Observation,Long March,1 51845U 22019X   24362.80075301  .00143866  00000+0  16560-2 0  9995,2 51845  97.4053  82.5678 0006701 252.2816 107.7710 15.61488237157314,15.61488237,0.0006701,LEO
52716,OBJECT A,2022,102.56,-1.0,-,86.0,Inactive,0,LEO,PRC,China,Unknown,Unknown,Unknown,1 52716U 22056A   24362.81562505  .00000562  00000+0  34323-3 0  9995,2 52716  86.0031 260.3111 0017911 243.7482 116.1856 14.04124434133613,14.04124434,0.0017911,LEO
52718,OBJECT C,2022,102.55,-1.0,-,86.0,Inactive,0,LEO,PRC,China,Unknown,Unknown,Unknown,1 52718U 22056C   24362.74778348  .00000534  00000+0  32522-3 0  9991,2 52718  86.0030 260.3440 0013837 236.1276 123.8586 14.04130105133605,14.04130105,0.0013837,LEO
53301,OBJECT C,2022,92.34,-1.0,-,97.31,Inactive,0,LEO,PRC,China,Unknown,Unknown,Unknown,1 53301U 22087C   24362.78323903  .00076462  00000+0  95190-3 0  9994,2 53301  97.3087  82.1825 0007036  16.9522 343.1969 15.59661144135517,15.59661144,0.0007036,LEO
53369,OBJECT C,2022,89.95,-1.0,-,97.31,Inactive,0,LEO,PRC,China,Unknown,Unknown,Unknown,1 53369U 22095C   24362.81053210  .00674308  21646-3  11416-2 0  9996,2 53369  97.3156  92.6074 0012034 192.7605 167.3372 16.02577346134173,16.02577346,0.0012034,LEO
53950,OBJECT C,2022,92.95,-1.0,-,97.37,Inactive,1,LEO,PRC,China,Government,Technology Development,Long March,1 53950U 22121C   24362.80782985  .00053303  00000+0  96930-3 0  9997,2 53950  97.3692  29.4757 0004737 233.9755 126.1057 15.49349937125643,15.49349937,0.0004737,LEO
54362,OBJECT B,2022,93.93,-1.0,-,97.46,Inactive,0,LEO,India,India,Unknown,Unknown,Unknown,1 54362U 22158B   24362.80485381  .00019143  00000+0  59740-3 0  9997,2 54362  97.4620 103.0132 0018141  96.4401 263.8907 15.33093245116041,15.33093245,0.0018141,LEO
55133,OBJECT A,2023,93.6,50.0,UNK,97.2,Inactive,1,LEO,PRC,China,Commercial,Technology Development,Ceres,1 55133U 23003A   24362.59076762  .00041269  00000+0  10809-2 0  9995,2 55133  97.2005  71.1221 0003112 264.9175  95.1716 15.38582229109270,15.38582229,0.0003112,LEO
55248,OBJECT A,2023,91.43,189.0,UNK,97.29,Inactive,1,LEO,PRC,China,Government,Earth Observation,Long March,1 55248U 23007A   24362.82752799  .00264103  00000+0  16776-2 0  9996,2 55248  97.2874  77.2415 0004277 163.3175 196.8232 15.75724926109239,15.75724926,0.0004277,LEO
55257,OBJECT K,2023,90.85,50.0,-,97.3,Inactive,1,LEO,PRC,China,Commercial,Earth Observation,Long March,1 55257U 23007K   24362.81763604  .00329504  00000+0  13067-2 0  9999,2 55257  97.2976  85.0051 0005285 242.3195 117.7540 15.85885764109733,15.85885764,0.0005285,LEO
25114,ORBCOMM FM11,1997,99.71,45.0,-,45.01,Inactive,1,LEO,Eastern Range Airspace,ORBCOMM,Commercial,Communications,Pegasus,1 25114U 97084C   24362.55680807  .00005026  00000+0  14888-2 0  9990,2 25114  45.0124 113.5654 0003498  81.3675 278.7572 14.44271015416659,14.44271015,0.0003498,LEO
25420,ORBCOMM FM13,1998,100.22,45.0,-,45.0,Inactive,1,LEO,Eastern Range Airspace,ORBCOMM,Commercial,Communications,Pegasus,1 25420U 98046H   24362.75170237  .00003162  00000+0  11068-2 0  9998,2 25420  44.9973 276.1943 0003915 123.9708 236.1512 14.36863789379702,14.36863789,0.0003915,LEO
25985,ORBCOMM FM35,1999,100.25,45.0,-,45.04,Inactive,1,LEO,Eastern Range Airspace,ORBCOMM,Commercial,Communications,Pegasus,1 25985U 99065F   24362.77873695  .00002346  00000+0  84180-3 0  9995,2 25985  45.0370 186.4713 0003409 243.6894 116.3604 14.36375554310325,14.36375554,0.0003409,LEO
40091,ORBCOMM FM103,2014,98.79,172.0,-,47.0,Inactive,1,LEO,USA,ORBCOMM,Commercial,Communications,Falcon,1 40091U 14040F   24362.58649372  .00002371  00000+0  55205-3 0  9996,2 40091  47.0044 107.9047 0002832 230.0373 130.0264 14.57608494539063,14.57608494,0.0002832,LEO
41186,ORBCOMM FM115,2015,98.51,172.0,-,47.0,Inactive,1,LEO,USA,ORBCOMM,Commercial,Communications,Falcon,1 41186U 15081H   24362.54505378  .00002772  00000+0  58348-3 0  9997,2 41186  46.9966 135.5376 0001274 279.6849  80.3894 14.61854218482658,14.61854218,0.0001274,LEO
53077,STARLINK-4315,2022,95.68,260.0,-,97.65,Inactive,1,LEO,USA,USA,Commercial,Communications,Falcon,1 53077U 22077AL  24362.49140099  .00046145  00000+0  32286-2 0  9995,2 53077  97.6467 180.6673 0001550 296.4814  63.6253 15.05101590135336,15.0510159,0.000155,LEO
33750,EUTELSAT 33E,2009,1455.38,4892.0,-,1.29,Inactive,1,GSO,French Guiana,EUTELSAT,Commercial,Communications,Ariane,1 33750U 09008B   24362.51678196 -.00000104  00000+0  00000+0 0  9999,2 33750   1.2944  87.0211 0004535 222.1365 267.8957  0.98942838 58050,0.98942838,0.0004535,GSO
38049,FENGYUN 2F,2012,1452.47,1390.0,-,6.22,Inactive,1,GSO,PRC,China,Government,Earth Observation,Long March,1 38049U 12002A   24361.95356524 -.00000218  00000+0  00000+0 0  9994,2 38049   6.2223  72.0615 0002242 173.1266 170.7451  0.99141003 47472,0.99141003,0.0002242,GSO
26624,ANIK F1,2000,1455.2,4710.0,-,3.8,Inactive,1,GSO,French Guiana,Canada,Commercial,Communications,Ariane,1 26624U 00076A   24362.39493911  .00000103  00000+0  00000+0 0  9991,2 26624   3.8023  81.3633 0012127 185.3425  33.2371  0.98955531 37759,0.98955531,0.0012127,GSO
55138,USA 340,2022,1446.42,100.0,-,4.24,Inactive,1,GSO,USA,USA,Military,Technology Development,Falcon,1 55138U 22144E   24362.51227520  .00000086  00000+0  00000+0 0  9998,2 55138   4.2496  65.4877 0001147 166.4912 251.0807  0.99557050  6388,0.9955705,0.0001147,GSO
24812,GALAXY 25 (G-25),1997,1453.24,3515.0,-,6.03,Inactive,1,GSO,Kazakhstan,USA,Commercial,Communications,Proton,1 24812U 97026A   24362.85188312  .00000057  00000+0  00000+0 0  9994,2 24812   6.0348  73.9741 0001313 346.9157  19.7364  0.99089991100908,0.99089991,0.0001313,GSO
55033,FLOCK 4Y-28,2023,92.2,6.0,-,97.39,Inactive,1,LEO,USA,USA,Commercial,Earth Observation,Falcon,1 55033U 23001AA  24362.67497903  .00290484  00000+0  31585-2 0  9994,2 55033  97.3837  70.8309 0004414 175.1159 185.0143 15.62505310110837,15.6250531,0.0004414,LEO
26407,NAVSTAR 48 (USA 151),2000,717.98,2217.0,-,54.99,Inactive,1,MEO,USA,USA,Commercial/Military,Navigation (Global or Regional Positioning),Delta,1 26407U 00040A   24361.61092017  .00000059  00000+0  00000+0 0  9997,2 26407  54.9932 236.5290 0137642 297.8394 263.4295  2.00563109179166,2.00563109,0.0137642,MEO
58314,FLOCK 4Q-24,2023,92.07,-1.0,-,97.42,Inactive,0,LEO,USA,USA,Unknown,Unknown,Unknown,1 58314U 23174BL  24362.68079396  .00492099  00000+0  46917-2 0  9994,2 58314  97.4224  78.0046 0008635 274.8918  85.1355 15.65215065 63324,15.65215065,0.0008635,LEO
900,CALSPHERE 1,1964,104.67,-1.0,+,90.21,Active,0,LEO,USA,USA,Unknown,Unknown,Unknown,1 00900U 64063C   24362.59201453  .00001321  00000+0  13553-2 0  9999,2 00900  90.2103  59.5723 0027702 116.6750 339.7880 13.75697890997616,13.7569789,0.0027702,LEO
902,CALSPHERE 2,1964,106.44,-1.0,+,90.23,Active,0,LEO,USA,USA,Unknown,Unknown,Unknown,1 00902U 64063E   24362.67998090  .00000109  00000+0  15063-3 0  9992,2 00902  90.2260  63.3171 0017989 351.1477 133.5495 13.52839673784180,13.52839673,0.0017989,LEO
1361,LCS 1,1965,145.56,-1.0,+,32.15,Active,0,MEO,USA,USA,Unknown,Unknown,Unknown,1 01361U 65034C   24362.47413575  .00000010  00000+0  20686-3 0  9997,2 01361  32.1463  11.3693 0009939  18.0451 342.0398  9.89307215156739,9.89307215,0.0009939,MEO
1512,TEMPSAT 1,1965,107.98,-1.0,+,89.96,Active,0,LEO,USA,USA,Unknown,Unknown,Unknown,1 01512U 65065E   24362.58562483  .00000089  00000+0  16103-3 0  9999,2 01512  89.9643 213.3738 0068459 316.6410  60.4236 13.33548320888535,13.3354832,0.0068459,LEO
